# Made by eph2tle, compiled Feb  2 2025 14:11:09
# Run at Thu Feb 27 20:16:08 2025 UTC
#
# No updates
#
#    The following TLEs (Two-Line Elements) were generated by fitting
# a numerically-integrated ephemeris,  based on the orbit given below,
# to the SDP4/SGP4 models.  Each TLE is good for the interval between
# its epoch and the epoch of the subsequent TLE (usually one day).
# The maximum deviation between the numerically integrated ephemerides
# and the TLE-based ephemeris, in kilometers,  is given for each TLE
# as the "worst residual".
#
#    This fitting is done using the 'eph2tle' code packaged with Find_Orb.
# The code has details on how the TLEs were computed :
#
#    https://github.com/Bill-Gray/find_orb/eph2tle.cpp
#
#    Be warned:  the error given is that between the numerically
# integrated ephems and the TLE model.  There will usually be at
# least some additional difference between the ephems and the actual
# motion of the satellite,  especially if the ephemerides are based
# on a short arc.  If the following orbital elements say something
# like "[based on] 10 observations 2015 Jan. 1-13",  and the TLEs
# are for 2015 May,  the extrapolation may be tenuous at best.  If
# your application requires a specific level of accuracy,  you may
# want to contact me;  I can give you some idea as to the fit of the
# underlying data (and possibly TLEs based on newer data).
#
#   You can usually find the underlying observational data,  and the
# fitted orbit,  residuals,  ephemerides,  and sometimes some comments
# about the object,  among the pages listed at
#
#    https://www.projectpluto.com/pluto/mpecs/pseudo.htm
#
#    WARNING:  for this object,  "normal" TLEs cannot be fitted.  (This
# usually means an object with an hyperbolic or nearly-parabolic orbit.)
# For this and similar cases,   an alternative model is used,  in which
# most of the traditional TLE data is replaced by six signed 8-digit hex
# numbers.  These six numbers are a state vector,  numerically integrated
# using a simplified force model.  This is necessary for objects at L2 or
# L1,  and sometimes for objects in high orbits where the SDP4/SGP4 model
# fails.  Some documentation is in 'get_el.cpp' in the source code at
# https://www.github.com/Bill-Gray/sat_code ; look for 'hex' in that file,
# with the actual integration done in 'sdp4.cpp'.  But be aware:  it's my
# own extension,  doesn't work with other code,  and is therefore used
# only when necessary.
#
#    Also,  if you use a TLE outside the "correct" time range (between
# its MJD and that of the next TLE),  all bets are off.  I've carefully
# computed and minimized the worst error over the "correct" time frame,
# but the ephemeris may (or may not) diverge wildly outside of it.
#
# Ephem range: 60127.000000 60249.000000 1.000000
# Created Thu Feb 27 15:15:56 2025
# Ephemeris start:  2 Jul 2023  0:00:00
# Ephemeris end:    1 Nov 2023  0:00:00
# Times are all TDT
# Positions/velocities are in equatorial J2000
# Orbital elements:  2023-092B = NORAD 57210 = Falcon 9-237 Stage 2
#    Perihelion 2023 Mar 31.123557 +/- 0.00088151 TT =  2:57:55.3 (JD 2460034.623557)
# Epoch 2023 Jul 18.0 TT = JDT 2460143.5   Earth MOID: 0.0001      Find_Orb
# M 104.734186142 +/- 0.000935        (J2000 ecliptic)
# n   0.961954516 +/- 8.1156e-7       Peri.  266.283549 +/- 0.0004315
# a   1.016325971 +/- 5.7161e-7       Node   277.585053 +/- 0.0001792
# e   0.05557871 +/- 2.7405e-6        Incl.    0.800738 +/- 4.1646e-5
# P   1.025/374.231d         H 26.59  G  0.15   U  3.3
# q 0.959839875 +/- 2.2597e-6    Q 1.072812068 +/- 3.378e-6
# From 27 observations 2023 July 1-18; mean residual 0".287
#
# 1 NoradU COSPAR   Epoch.epoch     dn/dt/2  d2n/dt2/6 BSTAR    T El# C
# 2 NoradU Inclina RAAscNode Eccent  ArgPeri MeanAno  MeanMotion Rev# C

# Worst residual: 2.15 km
# MJD 60127.000000 (2023 Jul  2  0:00)
2023-092B = NORAD 57210 = Falcon 9-237 Stage 2
1 57210U 23092B   23182.99919926 +00022XEP -001WYQ2R -000K83DVH 26156
2 57210                          +0003M2Q5 -000HD85Y -0002Z84N     06

# Worst residual: 6.09 km
# MJD 60128.000000 (2023 Jul  3  0:00)
2023-092B = NORAD 57210 = Falcon 9-237 Stage 2
1 57210U 23092B   23183.99919926 +000V1B4R -005CEAPQ -00139K5SH 26157
2 57210                          +00034SJB -000CQ58Q -0001WK34     07

# Worst residual: 2.65 km
# MJD 60129.000000 (2023 Jul  4  0:00)
2023-092B = NORAD 57210 = Falcon 9-237 Stage 2
1 57210U 23092B   23184.99919926 +001L19FZ -0088C6R5 -001J8OLVH 26157
2 57210                          +0002X26Q -000BHYP4 -0001SF63     03

# Worst residual: 1.79 km
# MJD 60130.000000 (2023 Jul  5  0:00)
2023-092B = NORAD 57210 = Falcon 9-237 Stage 2
1 57210U 23092B   23185.99919926 +0029QCN5 -00AWWJTB -001Y9G9TH 26156
2 57210                          +0002T1AW -000AWWX5 -0001P26W     06

# Worst residual: 0.62 km
# MJD 60131.000000 (2023 Jul  6  0:00)
2023-092B = NORAD 57210 = Falcon 9-237 Stage 2
1 57210U 23092B   23186.99919926 +002XMQ8X -00DHMFGP -002CNZ6EH 26150
2 57210                          +0002Q9PL -000AKPOI -0001N5F4     00

# Worst residual: 0.70 km
# MJD 60132.000000 (2023 Jul  7  0:00)
2023-092B = NORAD 57210 = Falcon 9-237 Stage 2
1 57210U 23092B   23187.99919926 +003KYGPT -00FZZQXF -002QQ1NWH 26159
2 57210                          +0002O79B -000ACX0G -0001M3YA     01

# Worst residual: 0.96 km
# MJD 60133.000000 (2023 Jul  8  0:00)
2023-092B = NORAD 57210 = Falcon 9-237 Stage 2
1 57210U 23092B   23188.99919926 +0047UGQA -00IGTZ0I -0034LRKRH 26152
2 57210                          +0002MLQ7 -000A7RKU -0001LNBE     06

# Worst residual: 1.18 km
# MJD 60134.000000 (2023 Jul  9  0:00)
2023-092B = NORAD 57210 = Falcon 9-237 Stage 2
1 57210U 23092B   23189.99919926 +004UEBCM -00KWNTW9 -003IFF9IH 26150
2 57210                          +0002LDMZ -000A4E75 -0001LM3T     01

# Worst residual: 1.33 km
# MJD 60135.000000 (2023 Jul 10  0:00)
2023-092B = NORAD 57210 = Falcon 9-237 Stage 2
1 57210U 23092B   23190.99919926 +005GP1RF -00NBUE4D -003WAB37H 26150
2 57210                          +0002KHLS -000A2B69 -0001LX3X     02

# Worst residual: 1.42 km
# MJD 60136.000000 (2023 Jul 11  0:00)
2023-092B = NORAD 57210 = Falcon 9-237 Stage 2
1 57210U 23092B   23191.99919926 +0062THPZ -00PQNCOZ -004A92PBH 26151
2 57210                          +0002JX61 -000A17CO -0001MI5S     02

# Worst residual: 1.49 km
# MJD 60137.000000 (2023 Jul 12  0:00)
2023-092B = NORAD 57210 = Falcon 9-237 Stage 2
1 57210U 23092B   23192.99919926 +006OUEWW -00S5A6Y3 -004ODXN7H 26150
2 57210                          +0002JO8U -000A0V42 -0001NBN5     01

# Worst residual: 1.56 km
# MJD 60138.000000 (2023 Jul 13  0:00)
2023-092B = NORAD 57210 = Falcon 9-237 Stage 2
1 57210U 23092B   23193.99919926 +007AUKZ8 -00UJWU45 -0052QQZWH 26151
2 57210                          +0002JQVQ -000A14X3 -0001OC9J     09

# Worst residual: 1.64 km
# MJD 60139.000000 (2023 Jul 14  0:00)
2023-092B = NORAD 57210 = Falcon 9-237 Stage 2
1 57210U 23092B   23194.99919926 +007WWS0T -00WYO1O4 -005HD3MUH 26151
2 57210                          +0002K54K -000A1WJR -0001PIXX     02

# Worst residual: 1.69 km
# MJD 60140.000000 (2023 Jul 15  0:00)
2023-092B = NORAD 57210 = Falcon 9-237 Stage 2
1 57210U 23092B   23195.99919926 +008J3SE1 -00ZDNOMK -005WABQEH 26159
2 57210                          +0002KUZA -000A32NL -0001QUQI     07

# Worst residual: 1.70 km
# MJD 60141.000000 (2023 Jul 16  0:00)
2023-092B = NORAD 57210 = Falcon 9-237 Stage 2
1 57210U 23092B   23196.99919926 +0095IE3O -011SYVWS -006BJJUWH 26158
2 57210                          +0002LWD3 -000A4KIG -0001SATJ     09

# Worst residual: 1.68 km
# MJD 60142.000000 (2023 Jul 17  0:00)
2023-092B = NORAD 57210 = Falcon 9-237 Stage 2
1 57210U 23092B   23197.99919926 +009S7C4T -0148O6Y3 -006R5PTJH 26157
2 57210                          +0002N941 -000A6BUJ -0001TUGD     02

# Worst residual: 1.67 km
# MJD 60143.000000 (2023 Jul 18  0:00)
2023-092B = NORAD 57210 = Falcon 9-237 Stage 2
1 57210U 23092B   23198.99919926 +00AF9BMP -016OTN4Y -00775LEBH 26154
2 57210                          +0002OWYW -000A8AR0 -0001VGZB     00

# Worst residual: 1.69 km
# MJD 60144.000000 (2023 Jul 19  0:00)
2023-092B = NORAD 57210 = Falcon 9-237 Stage 2
1 57210U 23092B   23199.99919926 +00B2QZ5X -0195GUN1 -007NJSZBH 26156
2 57210                          +0002QVLG -000AAFLB -0001X5T6     03

# Worst residual: 1.78 km
# MJD 60145.000000 (2023 Jul 20  0:00)
2023-092B = NORAD 57210 = Falcon 9-237 Stage 2
1 57210U 23092B   23200.99919926 +00BQQU2G -01BMN2NM -0084CU6PH 26152
2 57210                          +0002T4L1 -000ACOZT -0001YWFB     07

# Worst residual: 1.91 km
# MJD 60146.000000 (2023 Jul 21  0:00)
2023-092B = NORAD 57210 = Falcon 9-237 Stage 2
1 57210U 23092B   23201.99919926 +00CFBBW6 -01E4D9D8 -008LL2F6H 26154
2 57210                          +0002VNGW -000AF1S4 -00020ODA     08

# Worst residual: 2.03 km
# MJD 60147.000000 (2023 Jul 22  0:00)
2023-092B = NORAD 57210 = Falcon 9-237 Stage 2
1 57210U 23092B   23202.99919926 +00D4IRZG -01GMO3KT -00938REMH 26159
2 57210                          +0002YFQR -000AHGY9 -00022H8Q     02

# Worst residual: 2.11 km
# MJD 60148.000000 (2023 Jul 23  0:00)
2023-092B = NORAD 57210 = Falcon 9-237 Stage 2
1 57210U 23092B   23203.99919926 +00DUFD48 -01J5K23E -009LC3MTH 26157
2 57210                          +00031GUU -000AJXNG -00024AP3     02

# Worst residual: 2.12 km
# MJD 60149.000000 (2023 Jul 24  0:00)
2023-092B = NORAD 57210 = Falcon 9-237 Stage 2
1 57210U 23092B   23204.99919926 +00EL354X -01LP1EWF -00A3V6SAH 26156
2 57210                          +00034Q7S -000AMF5I -000264FH     00

# Worst residual: 2.10 km
# MJD 60150.000000 (2023 Jul 25  0:00)
2023-092B = NORAD 57210 = Falcon 9-237 Stage 2
1 57210U 23092B   23205.99919926 +00FCK0II -01O94A79 -00AMU23SH 26159
2 57210                          +00038761 -000AOWUF -00027Y6H     09

